GLOBALSTAR M069         
1 31573U 07020C   26197.37845847 -.00000112  00000+0 -18316-3 0  9996
2 31573  52.0008 169.5027 0001620 212.8917 303.8980 12.23472250882372
GLOBALSTAR M072         
1 31574U 07020D   26197.66452984 -.00000076  00000+0  11029-3 0  9997
2 31574  51.9950  21.7686 0001644  38.6433  39.8557 11.91658857878497
GLOBALSTAR M066         
1 32265U 07048C   26197.56939036 -.00000046  00000+0  40679-3 0  9992
2 32265  51.9609 333.5655 0005586 104.4817 336.2278 12.30389593863842
GLOBALSTAR M079         
1 37188U 10054A   26197.67580372 -.00000109  00000+0 -28828-4 0  9993
2 37188  52.0055  18.9023 0001127  80.3566 358.4650 12.62266414726277
GLOBALSTAR M074         
1 37189U 10054B   26197.53388777 -.00000105  00000+0 -81219-5 0  9994
2 37189  52.0031  18.5951 0000866  94.2975 299.2776 12.62262037726868
GLOBALSTAR M076         
1 37190U 10054C   26197.64871093 -.00000091  00000+0  68801-4 0  9990
2 37190  52.0046  18.4515 0001099  94.4179 341.0913 12.62262453726599
GLOBALSTAR M077         
1 37191U 10054D   26197.51351426 -.00000102  00000+0 -44940-3 0  9991
2 37191  51.9961 104.8606 0002240 227.7715 303.2903 11.67547399724564
GLOBALSTAR M075         
1 37192U 10054E   26197.64892171 -.00000090  00000+0  77643-4 0  9995
2 37192  51.9955  60.4882 0000766  66.6670 310.3491 12.62267876725660
GLOBALSTAR M073         
1 37193U 10054F   26197.58424689 -.00000101  00000+0  14331-4 0  9992
2 37193  52.0082 334.8088 0001049  98.2466 343.0539 12.62266918727641
GLOBALSTAR M083         
1 37739U 11033A   26197.69459428 -.00000072  00000+0  17536-3 0  9993
2 37739  51.9864 282.6625 0000746 107.9646  56.2830 12.62264243696675
GLOBALSTAR M088         
1 37740U 11033B   26197.43077402 -.00000118  00000+0 -77863-4 0  9997
2 37740  52.0189 189.9625 0000056  78.3233  85.2183 12.62269485692183
GLOBALSTAR M091         
1 37741U 11033C   26197.89010472 -.00000113  00000+0 -53614-4 0  9995
2 37741  51.9982 151.4860 0000467  27.3782   5.0326 12.62264235693039
GLOBALSTAR M085         
1 37742U 11033D   26197.79957000 -.00000088  00000+0  86131-4 0  9992
2 37742  52.0125 103.0798 0000811  43.6193 357.1984 12.62264367693536
GLOBALSTAR M081         
1 37743U 11033E   26197.45905485 -.00000099  00000+0  28382-4 0  9992
2 37743  51.9955 106.5188 0000693  55.7935 116.7743 12.62265285693636
GLOBALSTAR M089         
1 37744U 11033F   26197.62280999 -.00000091  00000+0  72959-4 0  9999
2 37744  51.9936  60.1735 0000702  90.9385 287.2345 12.62267589694508
GLOBALSTAR M084         
1 38040U 11080A   26197.66448200 -.00000096  00000+0  43179-4 0  9993
2 38040  52.0022 287.5451 0000791 131.9235  15.4992 12.62263528672485
GLOBALSTAR M080         
1 38041U 11080B   26197.46284883 -.00000079  00000+0  13994-3 0  9999
2 38041  52.0068 289.8875 0000293  81.0928 359.4146 12.62257497672583
GLOBALSTAR M082         
1 38042U 11080C   26197.31964852 -.00000080  00000+0  13065-3 0  9996
2 38042  52.0062 245.8274 0000197  83.2035 356.2318 12.62264284673274
GLOBALSTAR M092         
1 38043U 11080D   26197.61078683 -.00000092  00000+0  67119-4 0  9991
2 38043  52.0105 335.3381 0000772 105.8731 336.5591 12.62267797671768
GLOBALSTAR M090         
1 38044U 11080E   26197.52359487 -.00000076  00000+0  15383-3 0  9993
2 38044  52.0104 239.1716 0000423  89.7355  75.7166 12.62269582673414
GLOBALSTAR M086         
1 38045U 11080F   26197.43207166 -.00000091  00000+0  72064-4 0  9997
2 38045  51.9878 239.3311 0001488 113.3684 259.7771 12.62287821673350
GLOBALSTAR M097         
1 39072U 13005A   26197.30261826 -.00000124  00000+0 -11186-3 0  9991
2 39072  52.0028 154.7050 0000469  41.0496 319.0406 12.62271360620589
GLOBALSTAR M093         
1 39073U 13005B   26197.59259324 -.00000112  00000+0 -45422-4 0  9991
2 39073  52.0090 147.1804 0000691  46.4566 313.6358 12.62266331620573
GLOBALSTAR M094         
1 39074U 13005C   26197.59244975 -.00000088  00000+0  89104-4 0  9994
2 39074  51.9971  61.2691 0001021  64.7871 295.3102 12.62264192622185
GLOBALSTAR M096         
1 39075U 13005D   26197.76434407 -.00000090  00000+0  75295-4 0  9994
2 39075  52.0072 109.5700 0000776  44.9156 315.1774 12.62265729621125
GLOBALSTAR M078         
1 39076U 13005E   26197.18318523 -.00000123  00000+0 -10859-3 0  9993
2 39076  51.9845 195.3095 0000854 340.9625  19.1209 12.62260137619678
GLOBALSTAR M095         
1 39077U 13005F   26197.36823161 -.00000122  00000+0 -99959-4 0  9991
2 39077  52.0053 192.3909 0000484  14.8073 345.2808 12.62264129619556
GLOBALSTAR M087         
1 52888U 22064A   26197.77725823 -.00000090  00000+0  75185-4 0  9990
2 52888  52.0017 332.3678 0000904  86.2916 273.8054 12.62269388194870
